NOAA 15                 
1 25338U 98030A   25271.10540095  .00000311  00000+0  14544-3 0  9997
2 25338  98.5307 293.5544 0010964  40.7560 319.4439 14.27023717423915

NOAA 18                 
1 28654U 05018A   25271.25061440  .00000224  00000+0  14167-3 0  9997
2 28654  98.8354 349.4491 0014444 171.3649 188.7775 14.13642845 49303

NOAA 19                 
1 33591U 09005A   25271.06252230  .00000189  00000+0  12469-3 0  9994
2 33591  98.9865 336.3331 0014546  54.6721 305.5808 14.13412144857458

AMC-9 (GE-12)           
1 27820U 03024A   25270.41771488 -.00000123  00000+0  00000+0 0  9999
2 27820   7.2588  68.6903 0012666 351.6767  27.3671  0.99031244 81398

METEOR-M 2              
1 40069U 14037A   25271.28498682  .00000349  00000+0  17896-3 0  9997
2 40069  98.4812 251.7932 0006939  79.6154 280.5806 14.21339191582111

CUTE-1 (CO-55)          
1 27844U 03031E   25270.99236745  .00000672  00000+0  31132-3 0  9990
2 27844  98.6788 277.8604 0008779 222.2231 137.8272 14.24081838154359

EYESAT A (AO-27)        
1 22825U 93061C   25271.12676334  .00000259  00000+0  11594-3 0  9995
2 22825  98.7251 333.1743 0009063 143.6305 216.5495 14.30834734669524

OSCAR 7 (AO-7)          
1 07530U 74089B   25271.00828786 -.00000042  00000+0  27007-4 0  9995
2 07530 101.9986 276.4649 0011915 271.9630 156.2308 12.53691878327663

